NORAD_CAT_ID,OBJECT_NAME,OBJECT_TYPE,EPOCH,MEAN_MOTION,ECCENTRICITY,INCLINATION,RA_OF_ASC_NODE,ARG_OF_PERICENTER,MEAN_ANOMALY,BSTAR,MEAN_MOTION_DOT,MEAN_MOTION_DDOT,TLE_LINE0,TLE_LINE1,TLE_LINE2,SEMIMAJOR_AXIS,PERIOD,APOGEE,PERIGEE,DECAYED
53435.0,STARLINK-4542,PAYLOAD,2024-05-20 12:12:31,15.08861072,0.0001637,53.2155,178.6115,76.4866,283.6308,0.0014816,0.00023384,0.0,0 STARLINK-4542,1 53435U 22097AZ  24141.50870018  .00023384  00000-0  14816-2 0  9993,2 53435  53.2155 178.6115 0001637  76.4866 283.6308 15.08861072 98944,6917.816,95.436,540.813,538.549,0.0
53435.0,STARLINK-4542,PAYLOAD,2024-05-21 08:52:32,15.08849914,0.000139,53.2148,174.7422,86.8709,273.2442,6.175e-05,6.95e-06,0.0,0 STARLINK-4542,1 53435U 22097AZ  24142.36981631  .00000695  00000-0  61750-4 0  9993,2 53435  53.2148 174.7422 0001390  86.8709 273.2442 15.08849914 99071,6917.85,95.437,540.677,538.754,0.0
53435.0,STARLINK-4542,PAYLOAD,2024-05-22 02:21:46,15.08841306,0.0001545,53.2149,171.4699,89.9561,270.1609,4.2001e-05,3.81e-06,0.0,0 STARLINK-4542,1 53435U 22097AZ  24143.09845747  .00000381  00000-0  42001-4 0  9991,2 53435  53.2149 171.4699 0001545  89.9561 270.1609 15.08841306 99184,6917.876,95.437,540.81,538.673,0.0
53435.0,STARLINK-4542,PAYLOAD,2024-05-22 08:43:19,15.08841184,0.0001528,53.2153,170.2806,93.1633,266.9534,-7.8673e-06,-4.13e-06,0.0,0 STARLINK-4542,1 53435U 22097AZ  24143.36341769 -.00000413  00000-0 -78673-5 0  9999,2 53435  53.2153 170.2806 0001528  93.1633 266.9534 15.08841184 99683,6917.877,95.437,540.799,538.685,0.0
53435.0,STARLINK-4542,PAYLOAD,2024-05-23 05:23:20,15.08837871,0.0001502,53.2165,166.4164,94.3802,265.7361,8.8611e-05,1.122e-05,0.0,0 STARLINK-4542,1 53435U 22097AZ  24144.22453965  .00001122  00000-0  88611-4 0  9995,2 53435  53.2165 166.4164 0001502  94.3802 265.7361 15.08837871 99350,6917.887,95.438,540.791,538.713,0.0
53435.0,STARLINK-4542,PAYLOAD,2024-05-23 06:58:43,15.08837877,0.0001503,53.2166,166.119,94.8473,265.2691,8.5032e-05,1.065e-05,0.0,0 STARLINK-4542,1 53435U 22097AZ  24144.29077970  .00001065  00000-0  85032-4 0  9990,2 53435  53.2166 166.1190 0001503  94.8473 265.2691 15.08837877 99826,6917.887,95.438,540.792,538.712,0.0
53435.0,STARLINK-4542,PAYLOAD,2024-05-24 08:24:53,15.08836261,0.0001424,53.2161,161.3597,87.9622,272.1534,5.8348e-05,6.41e-06,0.0,0 STARLINK-4542,1 53435U 22097AZ  24145.35062275  .00000641  00000-0  58348-4 0  9999,2 53435  53.2161 161.3597 0001424  87.9622 272.1534 15.08836261 99526,6917.892,95.438,540.742,538.772,0.0
53435.0,STARLINK-4542,PAYLOAD,2024-05-24 17:57:12,15.08838824,0.0001113,53.2162,159.578,96.1531,263.9588,6.3929e-05,7.3e-06,0.0,0 STARLINK-4542,1 53435U 22097AZ  24145.74805977  .00000730  00000-0  63929-4 0  9996,2 53435  53.2162 159.5780 0001113  96.1531 263.9588 15.08838824100040,6917.884,95.438,540.519,538.979,0.0
53435.0,STARLINK-4542,PAYLOAD,2024-05-25 05:04:53,15.08855216,0.0001273,53.2154,157.4862,80.7669,279.3467,0.00020615,2.996e-05,0.0,0 STARLINK-4542,1 53435U 22097AZ  24146.21172650  .00002996  00000-0  20615-3 0  9994,2 53435  53.2154 157.4862 0001273  80.7669 279.3467 15.08855216 99652,6917.834,95.437,540.58,538.818,0.0
53435.0,STARLINK-4542,PAYLOAD,2024-05-25 08:15:40,15.08840927,0.0001387,53.2163,156.9033,93.1528,266.9623,7.8594e-05,9.63e-06,0.0,0 STARLINK-4542,1 53435U 22097AZ  24146.34421947  .00000963  00000-0  78594-4 0  9996,2 53435  53.2163 156.9033 0001387  93.1528 266.9623 15.08840927 99675,6917.878,95.437,540.702,538.783,0.0
53435.0,STARLINK-4542,PAYLOAD,2024-05-25 17:47:57,15.08825103,0.0006054,53.2166,155.1138,246.0777,113.9582,5.4865e-06,-2.03e-06,0.0,0 STARLINK-4542,1 53435U 22097AZ  24146.74163953 -.00000203  00000-0  54865-5 0  9994,2 53435  53.2166 155.1138 0006054 246.0777 113.9582 15.08825103 99737,6917.926,95.438,543.979,535.603,0.0
53435.0,STARLINK-4542,PAYLOAD,2024-05-26 06:00:02,15.08831449,0.0001406,53.215,152.8355,92.6573,150.3185,-9.5637e-05,-1.809e-05,0.0,0 STARLINK-4542,1 53435U 22097AZ  24147.25002315 -.00001809  00000-0 -95637-4 0  9990,2 53435  53.2150 152.8355 0001406  92.6573 150.3185 15.08831449 99802,6917.907,95.438,540.744,538.799,0.0
53435.0,STARLINK-4542,PAYLOAD,2024-05-26 08:06:27,15.0884115,0.0001326,53.2164,152.442,109.0895,251.0241,5.8416e-05,6.42e-06,0.0,0 STARLINK-4542,1 53435U 22097AZ  24147.33781850  .00000642  00000-0  58416-4 0  9993,2 53435  53.2164 152.4420 0001326 109.0895 251.0241 15.08841150100284,6917.877,95.437,540.659,538.825,0.0
53435.0,STARLINK-4542,PAYLOAD,2024-05-26 17:38:45,15.0887937,0.0001091,53.2167,150.6579,106.5833,253.5279,-0.00047707,-7.881e-05,0.0,0 STARLINK-4542,1 53435U 22097AZ  24147.73524314 -.00007881  00000-0 -47707-3 0  9991,2 53435  53.2167 150.6579 0001091 106.5833 253.5279 15.08879370 99881,6917.76,95.435,540.38,538.87,0.0
53435.0,STARLINK-4542,PAYLOAD,2024-05-27 04:46:28,15.08830966,0.0001347,53.2164,148.5767,95.6663,264.4483,0.00017433,2.487e-05,0.0,0 STARLINK-4542,1 53435U 22097AZ  24148.19894283  .00002487  00000-0  17433-3 0  9995,2 53435  53.2164 148.5767 0001347  95.6663 264.4483 15.08830966 99950,6917.908,95.438,540.705,538.841,0.0
53435.0,STARLINK-4542,PAYLOAD,2024-05-27 06:21:51,15.08840759,0.0001384,53.2166,148.2789,94.0419,266.0731,3.4799e-05,2.66e-06,0.0,0 STARLINK-4542,1 53435U 22097AZ  24148.26517947  .00000266  00000-0  34799-4 0  9990,2 53435  53.2166 148.2789 0001384  94.0419 266.0731 15.08840759100426,6917.878,95.438,540.701,538.786,0.0
53435.0,STARLINK-4542,PAYLOAD,2024-05-28 06:12:38,15.08839558,0.0001334,53.2162,143.8184,91.6987,268.4158,3.5391e-05,2.75e-06,0.0,0 STARLINK-4542,1 53435U 22097AZ  24149.25877911  .00000275  00000-0  35391-4 0  9999,2 53435  53.2162 143.8184 0001334  91.6987 268.4158 15.08839558100570,6917.882,95.438,540.67,538.824,0.0
53435.0,STARLINK-4542,PAYLOAD,2024-05-29 06:00:00,15.08847916,0.0001424,53.2158,139.3703,85.3886,261.849,-0.001225,-0.00019735,0.0,0 STARLINK-4542,1 53435U 22097AZ  24150.25001157 -.00019735  00000-0 -12250-2 0  9992,2 53435  53.2158 139.3703 0001424  85.3886 261.8490 15.08847916100269,6917.856,95.437,540.706,538.736,0.0
53435.0,STARLINK-4542,PAYLOAD,2024-05-29 14:00:01,15.08854424,0.0001357,53.2157,137.8734,85.9579,272.9329,-0.0025748,-0.00041048,0.0,0 STARLINK-4542,1 53435U 22097AZ  24150.58335648 -.00041048  00000-0 -25748-2 0  9991,2 53435  53.2157 137.8734 0001357  85.9579 272.9329 15.08854424  5759,6917.836,95.437,540.64,538.763,0.0
53435.0,STARLINK-4542,PAYLOAD,2024-05-29 22:00:01,15.088224,0.0001394,53.2161,136.3759,96.9221,273.57,0.002509,0.00039849,0.0,0 STARLINK-4542,1 53435U 22097AZ  24150.91668981  .00039849  00000-0  25090-2 0  9991,2 53435  53.2161 136.3759 0001394  96.9221 273.5700 15.08822400  5807,6917.934,95.439,540.764,538.835,0.0
53435.0,STARLINK-4542,PAYLOAD,2024-05-30 04:18:49,15.08839022,0.0001352,53.2166,135.1952,100.8433,259.2711,3.9597e-05,3.42e-06,0.0,0 STARLINK-4542,1 53435U 22097AZ  24151.17974027  .00000342  00000-0  39597-4 0  9996,2 53435  53.2166 135.1952 0001352 100.8433 259.2711 15.08839022100401,6917.883,95.438,540.684,538.813,0.0
53435.0,STARLINK-4542,PAYLOAD,2024-05-30 21:48:04,15.08839857,0.0001355,53.217,131.9242,99.349,260.7656,6.2987e-05,7.15e-06,0.0,0 STARLINK-4542,1 53435U 22097AZ  24151.90837982  .00000715  00000-0  62987-4 0  9998,2 53435  53.2170 131.9242 0001355  99.3490 260.7656 15.08839857100973,6917.881,95.438,540.683,538.808,0.0
53435.0,STARLINK-4542,PAYLOAD,2024-05-31 04:09:36,15.0883798,0.0001346,53.2168,130.7343,97.5065,262.608,4.702e-05,4.6e-06,0.0,0 STARLINK-4542,1 53435U 22097AZ  24152.17334220  .00000460  00000-0  47020-4 0  9993,2 53435  53.2168 130.7343 0001346  97.5065 262.6080 15.08837980101010,6917.887,95.438,540.683,538.82,0.0
53435.0,STARLINK-4542,PAYLOAD,2024-06-01 05:35:47,15.08833708,0.0001445,53.2182,125.9769,85.1478,274.9679,-9.9468e-06,-4.46e-06,0.0,0 STARLINK-4542,1 53435U 22097AZ  24153.23318924 -.00000446  00000-0 -99468-5 0  9994,2 53435  53.2182 125.9769 0001445  85.1478 274.9679 15.08833708100715,6917.9,95.438,540.764,538.765,0.0
53435.0,STARLINK-4542,PAYLOAD,2024-06-01 07:11:10,15.08834803,0.0001452,53.2181,125.6793,84.0762,276.0395,-6.8652e-06,-3.97e-06,0.0,0 STARLINK-4542,1 53435U 22097AZ  24153.29942868 -.00000397  00000-0 -68652-5 0  9996,2 53435  53.2181 125.6793 0001452  84.0762 276.0395 15.08834803101187,6917.896,95.438,540.766,538.757,0.0
53435.0,STARLINK-4542,PAYLOAD,2024-06-01 15:08:05,15.08840476,0.0001516,53.2185,124.1933,84.9482,275.1683,4.1331e-05,3.7e-06,0.0,0 STARLINK-4542,1 53435U 22097AZ  24153.63062435  .00000370  00000-0  41331-4 0  9990,2 53435  53.2185 124.1933 0001516  84.9482 275.1683 15.08840476100777,6917.879,95.438,540.793,538.695,0.0
53435.0,STARLINK-4542,PAYLOAD,2024-06-02 05:26:34,15.08835296,0.0001444,53.2177,121.5163,78.1251,281.9903,1.5813e-05,-3.6e-07,0.0,0 STARLINK-4542,1 53435U 22097AZ  24154.22678982 -.00000036  00000-0  15813-4 0  9992,2 53435  53.2177 121.5163 0001444  78.1251 281.9903 15.08835296100867,6917.895,95.438,540.759,538.761,0.0
53435.0,STARLINK-4542,PAYLOAD,2024-06-02 07:01:57,15.08835727,0.0001448,53.2177,121.2188,77.5767,282.5387,1.5915e-05,-3.5e-07,0.0,0 STARLINK-4542,1 53435U 22097AZ  24154.29302979 -.00000035  00000-0  15915-4 0  9991,2 53435  53.2177 121.2188 0001448  77.5767 282.5387 15.08835727101335,6917.893,95.438,540.76,538.757,0.0
53435.0,STARLINK-4542,PAYLOAD,2024-06-02 14:58:53,15.08842272,0.0001466,53.218,119.7335,84.4351,275.6808,6.1929e-05,6.98e-06,0.0,0 STARLINK-4542,1 53435U 22097AZ  24154.62422463  .00000698  00000-0  61929-4 0  9999,2 53435  53.2180 119.7335 0001466  84.4351 275.6808 15.08842272100929,6917.873,95.437,540.753,538.724,0.0
53435.0,STARLINK-4542,PAYLOAD,2024-06-03 06:52:44,15.08840821,0.0001246,53.2171,116.7597,88.0744,272.0391,8.4385e-05,1.055e-05,0.0,0 STARLINK-4542,1 53435U 22097AZ  24155.28662599  .00001055  00000-0  84385-4 0  9997,2 53435  53.2171 116.7597 0001246  88.0744 272.0391 15.08840821101486,6917.878,95.438,540.605,538.881,0.0
